[{"OBJECT_NAME":"OSCAR 7 (AO-7)","OBJECT_ID":"1974-089B","EPOCH":"2026-04-26T18:40:21.593280","MEAN_MOTION":12.53697208,"ECCENTRICITY":0.0011965,"INCLINATION":101.993,"RA_OF_ASC_NODE":129.4844,"ARG_OF_PERICENTER":228.0304,"MEAN_ANOMALY":305.4015,"EPHEMERIS_TYPE":0,"CLASSIFICATION_TYPE":"U","NORAD_CAT_ID":7530,"ELEMENT_SET_NO":999,"REV_AT_EPOCH":35407,"BSTAR":0.00012536,"MEAN_MOTION_DOT":-2.6e-7,"MEAN_MOTION_DDOT":0},{"OBJECT_NAME":"PHASE 3B (AO-10)","OBJECT_ID":"1983-058B","EPOCH":"2026-04-26T09:51:20.304288","MEAN_MOTION":2.05872084,"ECCENTRICITY":0.60291924,"INCLINATION":25.895,"RA_OF_ASC_NODE":228.1939,"ARG_OF_PERICENTER":101.3882,"MEAN_ANOMALY":328.0796,"EPHEMERIS_TYPE":0,"CLASSIFICATION_TYPE":"U","NORAD_CAT_ID":14129,"ELEMENT_SET_NO":999,"REV_AT_EPOCH":29442,"BSTAR":0,"MEAN_MOTION_DOT":-6.0e-8,"MEAN_MOTION_DDOT":0},{"OBJECT_NAME":"UOSAT 2 (UO-11)","OBJECT_ID":"1984-021B","EPOCH":"2026-04-26T19:19:19.970400","MEAN_MOTION":14.90657676,"ECCENTRICITY":0.0007688,"INCLINATION":97.802,"RA_OF_ASC_NODE":82.9714,"ARG_OF_PERICENTER":6.0597,"MEAN_ANOMALY":354.0712,"EPHEMERIS_TYPE":0,"CLASSIFICATION_TYPE":"U","NORAD_CAT_ID":14781,"ELEMENT_SET_NO":999,"REV_AT_EPOCH":24947,"BSTAR":0.0001534,"MEAN_MOTION_DOT":1.448e-5,"MEAN_MOTION_DDOT":0},{"OBJECT_NAME":"LUSAT (LO-19)","OBJECT_ID":"1990-005G","EPOCH":"2026-04-26T14:56:36.661056","MEAN_MOTION":14.3410649,"ECCENTRICITY":0.0011566,"INCLINATION":98.8885,"RA_OF_ASC_NODE":136.9991,"ARG_OF_PERICENTER":3.261,"MEAN_ANOMALY":356.8647,"EPHEMERIS_TYPE":0,"CLASSIFICATION_TYPE":"U","NORAD_CAT_ID":20442,"ELEMENT_SET_NO":999,"REV_AT_EPOCH":89500,"BSTAR":6.7827e-5,"MEAN_MOTION_DOT":1.43e-6,"MEAN_MOTION_DDOT":0},{"OBJECT_NAME":"EYESAT A (AO-27)","OBJECT_ID":"1993-061C","EPOCH":"2026-04-26T17:53:22.071840","MEAN_MOTION":14.30927892,"ECCENTRICITY":0.0007324,"INCLINATION":98.6904,"RA_OF_ASC_NODE":184.1707,"ARG_OF_PERICENTER":248.1287,"MEAN_ANOMALY":111.9117,"EPHEMERIS_TYPE":0,"CLASSIFICATION_TYPE":"U","NORAD_CAT_ID":22825,"ELEMENT_SET_NO":999,"REV_AT_EPOCH":69964,"BSTAR":5.4476e-5,"MEAN_MOTION_DOT":9.8e-7,"MEAN_MOTION_DDOT":0},{"OBJECT_NAME":"ITAMSAT (IO-26)","OBJECT_ID":"1993-061D","EPOCH":"2026-04-26T17:45:45.592992","MEAN_MOTION":14.31353361,"ECCENTRICITY":0.0008013,"INCLINATION":98.6852,"RA_OF_ASC_NODE":184.0776,"ARG_OF_PERICENTER":229.6564,"MEAN_ANOMALY":130.3919,"EPHEMERIS_TYPE":0,"CLASSIFICATION_TYPE":"U","NORAD_CAT_ID":22826,"ELEMENT_SET_NO":999,"REV_AT_EPOCH":69995,"BSTAR":5.6335e-5,"MEAN_MOTION_DOT":1.05e-6,"MEAN_MOTION_DDOT":0},{"OBJECT_NAME":"RADIO ROSTO (RS15)","OBJECT_ID":"1994-085A","EPOCH":"2026-04-26T20:29:19.052736","MEAN_MOTION":11.27583777,"ECCENTRICITY":0.0154483,"INCLINATION":64.8209,"RA_OF_ASC_NODE":26.2362,"ARG_OF_PERICENTER":13.2186,"MEAN_ANOMALY":347.2718,"EPHEMERIS_TYPE":0,"CLASSIFICATION_TYPE":"U","NORAD_CAT_ID":23439,"ELEMENT_SET_NO":999,"REV_AT_EPOCH":29011,"BSTAR":-0.00015817,"MEAN_MOTION_DOT":-4.8e-7,"MEAN_MOTION_DDOT":0},{"OBJECT_NAME":"JAS-2 (FO-29)","OBJECT_ID":"1996-046B","EPOCH":"2026-04-26T13:20:07.810944","MEAN_MOTION":13.53271655,"ECCENTRICITY":0.03490483,"INCLINATION":98.5302,"RA_OF_ASC_NODE":332.4819,"ARG_OF_PERICENTER":230.3208,"MEAN_ANOMALY":126.6666,"EPHEMERIS_TYPE":0,"CLASSIFICATION_TYPE":"U","NORAD_CAT_ID":24278,"ELEMENT_SET_NO":999,"REV_AT_EPOCH":46618,"BSTAR":4.6244883e-5,"MEAN_MOTION_DOT":8.0e-8,"MEAN_MOTION_DDOT":0},{"OBJECT_NAME":"TECHSAT 1B (GO-32)","OBJECT_ID":"1998-043D","EPOCH":"2026-04-26T20:34:10.253568","MEAN_MOTION":14.24417863,"ECCENTRICITY":0.0001758,"INCLINATION":99.0062,"RA_OF_ASC_NODE":108.3254,"ARG_OF_PERICENTER":42.3066,"MEAN_ANOMALY":317.8248,"EPHEMERIS_TYPE":0,"CLASSIFICATION_TYPE":"U","NORAD_CAT_ID":25397,"ELEMENT_SET_NO":999,"REV_AT_EPOCH":44402,"BSTAR":4.8141e-5,"MEAN_MOTION_DOT":6.5e-7,"MEAN_MOTION_DDOT":0},{"OBJECT_NAME":"ISS (ZARYA)","OBJECT_ID":"1998-067A","EPOCH":"2026-04-26T15:38:18.521664","MEAN_MOTION":15.48972814,"ECCENTRICITY":0.0007009,"INCLINATION":51.632,"RA_OF_ASC_NODE":195.1803,"ARG_OF_PERICENTER":353.7259,"MEAN_ANOMALY":6.364,"EPHEMERIS_TYPE":0,"CLASSIFICATION_TYPE":"U","NORAD_CAT_ID":25544,"ELEMENT_SET_NO":999,"REV_AT_EPOCH":56376,"BSTAR":0.00017009,"MEAN_MOTION_DOT":8.927e-5,"MEAN_MOTION_DDOT":0},{"OBJECT_NAME":"PCSAT (NO-44)","OBJECT_ID":"2001-043C","EPOCH":"2026-04-26T19:44:31.384608","MEAN_MOTION":14.3193545,"ECCENTRICITY":0.0006502,"INCLINATION":67.0527,"RA_OF_ASC_NODE":17.1229,"ARG_OF_PERICENTER":263.9783,"MEAN_ANOMALY":96.0578,"EPHEMERIS_TYPE":0,"CLASSIFICATION_TYPE":"U","NORAD_CAT_ID":26931,"ELEMENT_SET_NO":999,"REV_AT_EPOCH":28309,"BSTAR":7.4273e-5,"MEAN_MOTION_DOT":1.16e-6,"MEAN_MOTION_DDOT":0},{"OBJECT_NAME":"SAUDISAT 1C (SO-50)","OBJECT_ID":"2002-058C","EPOCH":"2026-04-26T20:05:43.895904","MEAN_MOTION":14.82930098,"ECCENTRICITY":0.0075592,"INCLINATION":64.5515,"RA_OF_ASC_NODE":287.8458,"ARG_OF_PERICENTER":271.8075,"MEAN_ANOMALY":87.4374,"EPHEMERIS_TYPE":0,"CLASSIFICATION_TYPE":"U","NORAD_CAT_ID":27607,"ELEMENT_SET_NO":999,"REV_AT_EPOCH":25684,"BSTAR":0.00015127,"MEAN_MOTION_DOT":1.136e-5,"MEAN_MOTION_DDOT":0},{"OBJECT_NAME":"CUTE-1 (CO-55)","OBJECT_ID":"2003-031E","EPOCH":"2026-04-26T18:08:00.880800","MEAN_MOTION":14.24302739,"ECCENTRICITY":0.0009078,"INCLINATION":98.6757,"RA_OF_ASC_NODE":125.9591,"ARG_OF_PERICENTER":342.277,"MEAN_ANOMALY":17.8091,"EPHEMERIS_TYPE":0,"CLASSIFICATION_TYPE":"U","NORAD_CAT_ID":27844,"ELEMENT_SET_NO":999,"REV_AT_EPOCH":18435,"BSTAR":0.00016208,"MEAN_MOTION_DOT":3.31e-6,"MEAN_MOTION_DDOT":0},{"OBJECT_NAME":"CUBESAT XI-IV (CO-57)","OBJECT_ID":"2003-031J","EPOCH":"2026-04-26T12:10:44.317632","MEAN_MOTION":14.23592208,"ECCENTRICITY":0.0009403,"INCLINATION":98.6789,"RA_OF_ASC_NODE":125.4683,"ARG_OF_PERICENTER":1.8754,"MEAN_ANOMALY":358.2459,"EPHEMERIS_TYPE":0,"CLASSIFICATION_TYPE":"U","NORAD_CAT_ID":27848,"ELEMENT_SET_NO":999,"REV_AT_EPOCH":18402,"BSTAR":0.00013913641,"MEAN_MOTION_DOT":2.73e-6,"MEAN_MOTION_DDOT":0},{"OBJECT_NAME":"MOZHAETS 4 (RS22)","OBJECT_ID":"2003-042A","EPOCH":"2026-04-26T21:08:33.999648","MEAN_MOTION":14.73372395,"ECCENTRICITY":0.0012518,"INCLINATION":98.3472,"RA_OF_ASC_NODE":299.794,"ARG_OF_PERICENTER":73.2372,"MEAN_ANOMALY":34.2761,"EPHEMERIS_TYPE":0,"CLASSIFICATION_TYPE":"U","NORAD_CAT_ID":27939,"ELEMENT_SET_NO":999,"REV_AT_EPOCH":20799,"BSTAR":0.00018182,"MEAN_MOTION_DOT":1.125e-5,"MEAN_MOTION_DDOT":0},{"OBJECT_NAME":"CUBESAT XI-V","OBJECT_ID":"2005-043F","EPOCH":"2026-04-26T16:37:53.440896","MEAN_MOTION":14.72492449,"ECCENTRICITY":0.0014225,"INCLINATION":98.2925,"RA_OF_ASC_NODE":271.2553,"ARG_OF_PERICENTER":14.3495,"MEAN_ANOMALY":345.8113,"EPHEMERIS_TYPE":0,"CLASSIFICATION_TYPE":"U","NORAD_CAT_ID":28895,"ELEMENT_SET_NO":999,"REV_AT_EPOCH":9417,"BSTAR":0.00025776,"MEAN_MOTION_DOT":1.586e-5,"MEAN_MOTION_DDOT":0}]
