OSCAR 7 (AO-7)          
1 07530U 74089B   26116.77802770 -.00000026  00000+0  12536-3 0  9995
2 07530 101.9930 129.4844 0011965 228.0304 305.4015 12.53697208354073
PHASE 3B (AO-10)        
1 14129U 83058B   26116.41065167 -.00000006  00000+0  00000+0 0  9992
2 14129  25.8950 228.1939 6029192 101.3882 328.0796  2.05872084294426
UOSAT 2 (UO-11)         
1 14781U 84021B   26116.80509225  .00001448  00000+0  15340-3 0  9995
2 14781  97.8020  82.9714 0007688   6.0597 354.0712 14.90657676249475
LUSAT (LO-19)           
1 20442U 90005G   26116.62264654  .00000143  00000+0  67827-4 0  9998
2 20442  98.8885 136.9991 0011566   3.2610 356.8647 14.34106490895002
EYESAT A (AO-27)        
1 22825U 93061C   26116.74539435  .00000098  00000+0  54476-4 0  9990
2 22825  98.6904 184.1707 0007324 248.1287 111.9117 14.30927892699643
ITAMSAT (IO-26)         
1 22826U 93061D   26116.74011103  .00000105  00000+0  56335-4 0  9993
2 22826  98.6852 184.0776 0008013 229.6564 130.3919 14.31353361699953
RADIO ROSTO (RS15)      
1 23439U 94085A   26116.85369274 -.00000048  00000+0 -15817-3 0  9995
2 23439  64.8209  26.2362 0154483  13.2186 347.2718 11.27583777290112
JAS-2 (FO-29)           
1 24278U 96046B   26116.55564596  .00000008  00000+0  46245-4 0  9991
2 24278  98.5302 332.4819 0349048 230.3208 126.6666 13.53271655466184
TECHSAT 1B (GO-32)      
1 25397U 98043D   26116.85706312  .00000065  00000+0  48141-4 0  9990
2 25397  99.0062 108.3254 0001758  42.3066 317.8248 14.24417863444026
ISS (ZARYA)             
1 25544U 98067A   26116.65160326  .00008927  00000+0  17009-3 0  9990
2 25544  51.6320 195.1803 0007009 353.7259   6.3640 15.48972814563761
PCSAT (NO-44)           
1 26931U 01043C   26116.82258547  .00000116  00000+0  74273-4 0  9990
2 26931  67.0527  17.1229 0006502 263.9783  96.0578 14.31935450283095
SAUDISAT 1C (SO-50)     
1 27607U 02058C   26116.83731361  .00001136  00000+0  15127-3 0  9994
2 27607  64.5515 287.8458 0075592 271.8075  87.4374 14.82930098256842
CUTE-1 (CO-55)          
1 27844U 03031E   26116.75556575  .00000331  00000+0  16208-3 0  9999
2 27844  98.6757 125.9591 0009078 342.2770  17.8091 14.24302739184352
CUBESAT XI-IV (CO-57)   
1 27848U 03031J   26116.50745738  .00000273  00000+0  13914-3 0  9993
2 27848  98.6789 125.4683 0009403   1.8754 358.2459 14.23592208184025
MOZHAETS 4 (RS22)       
1 27939U 03042A   26116.88094907  .00001125  00000+0  18182-3 0  9991
2 27939  98.3472 299.7940 0012518  73.2372  34.2761 14.73372395207990
CUBESAT XI-V            
1 28895U 05043F   26116.69297964  .00001586  00000+0  25776-3 0  9991
2 28895  98.2925 271.2553 0014225  14.3495 345.8113 14.72492449 94176
